*******************************************************************************
JPL/HORIZONS               1467 Mashona (1938 OE)          2023-Sep-04 11:12:19
Rec #:    1467 (+COV) Soln.date: 2023-Aug-22_03:00:16   # obs: 7028 (1923-2023)
 
IAU76/J2000 helio. ecliptic osc. elements (au, days, deg., period=Julian yrs):
 
  EPOCH=  2457406.5 ! 2016-Jan-19.00 (TDB)         Residual RMS= .24756
   EC= .1319673537071642   QR= 2.934204150196593   TP= 2456391.7639076719
   OM= 326.5596620725194   W=  349.8488087577992   IN= 21.96202009789704
   A= 3.380292391913935    MA= 160.9258381358032   ADIST= 3.826380633631278
   PER= 6.21498            N= .158588858           ANGMOM= .031350434
   DAN= 2.93957            DDN= 3.8173             L= 317.131395
   B= -3.7793729           MOID= 1.92367995        TP= 2013-Apr-09.2639076719
 
Asteroid physical parameters (km, seconds, rotational period in hours):
   GM= n.a.                RAD= 44.58              ROTPER= 9.76
   H= 8.7                  G= .150                 B-V= .743
                           ALBEDO= .083            STYP= GC

ASTEROID comments: 
1: soln ref.= JPL#64, OCC=0
2: source=ORB
*******************************************************************************


*******************************************************************************
Ephemeris / API_USER Mon Sep  4 11:12:19 2023 Pasadena, USA      / Horizons
*******************************************************************************
Target body name: 1467 Mashona (1938 OE)          {source: JPL#64}
Center body name: Solar System Barycenter (0)     {source: DE441}
Center-site name: BODY CENTER
*******************************************************************************
Start time      : A.D. 2023-Aug-12 00:00:00.0000 TDB
Stop  time      : A.D. 2023-Aug-13 00:00:00.0000 TDB
Step-size       : 2880 minutes
*******************************************************************************
Center geodetic : 0.0, 0.0, 0.0                   {E-lon(deg),Lat(deg),Alt(km)}
Center cylindric: 0.0, 0.0, 0.0                   {E-lon(deg),Dxy(km),Dz(km)}
Center radii    : (undefined)
Small perturbers: Yes                             {source: SB441-N16}
Output units    : KM-S
Calendar mode   : Mixed Julian/Gregorian
Output type     : GEOMETRIC cartesian states
Output format   : 2 (position and velocity)
Reference frame : Ecliptic of J2000.0
*******************************************************************************
Initial IAU76/J2000 heliocentric ecliptic osculating elements (au, days, deg.):
  EPOCH=  2457406.5 ! 2016-Jan-19.00 (TDB)         Residual RMS= .24756        
   EC= .1319673537071642   QR= 2.934204150196593   TP= 2456391.7639076719      
   OM= 326.5596620725194   W=  349.8488087577992   IN= 21.96202009789704       
  Equivalent ICRF heliocentric cartesian coordinates (au, au/d):
   X=-2.059306677311365E+00  Y= 2.646771958979877E+00  Z= 1.802317759523275E+00
  VX=-6.887017734536043E-03 VY=-2.212386199467727E-03 VZ=-3.947674412381219E-03
Asteroid physical parameters (km, seconds, rotational period in hours):        
   GM= n.a.                RAD= 44.58              ROTPER= 9.76                
   H= 8.7                  G= .150                 B-V= .743                   
                           ALBEDO= .083            STYP= GC                    
*******************************************************************************
JDTDB
   X     Y     Z
   VX    VY    VZ
*******************************************************************************
$$SOE
2460168.500000000 = A.D. 2023-Aug-12 00:00:00.0000 TDB 
 X =-5.343793195165117E+08 Y =-8.968926493312694E+06 Z =-1.217094515306294E+08
 VX= 2.712968914380569E+00 VY=-1.412907583426936E+01 VZ=-4.117759103609946E+00
$$EOE
*******************************************************************************
 
TIME

  Barycentric Dynamical Time ("TDB" or T_eph) output was requested. This
continuous coordinate time is equivalent to the relativistic proper time
of a clock at rest in a reference frame co-moving with the solar system
barycenter but outside the system's gravity well. It is the independent
variable in the solar system relativistic equations of motion.

  TDB runs at a uniform rate of one SI second per second and is independent
of irregularities in Earth's rotation.
 
CALENDAR SYSTEM

  Mixed calendar mode was active such that calendar dates after AD 1582-Oct-15
(if any) are in the modern Gregorian system. Dates prior to 1582-Oct-5 (if any)
are in the Julian calendar system, which is automatically extended for dates
prior to its adoption on 45-Jan-1 BC.  The Julian calendar is useful for
matching historical dates. The Gregorian calendar more accurately corresponds
to the Earth's orbital motion and seasons. A "Gregorian-only" calendar mode is
available if such physical events are the primary interest.

REFERENCE FRAME AND COORDINATES

  Ecliptic at the standard reference epoch

    Reference epoch: J2000.0
    X-Y plane: adopted Earth orbital plane at the reference epoch
               Note: IAU76 obliquity of 84381.448 arcseconds wrt ICRF X-Y plane
    X-axis   : ICRF
    Z-axis   : perpendicular to the X-Y plane in the directional (+ or -) sense
               of Earth's north pole at the reference epoch.

  Symbol meaning:

    JDTDB    Julian Day Number, Barycentric Dynamical Time
      X      X-component of position vector (km)
      Y      Y-component of position vector (km)
      Z      Z-component of position vector (km)
      VX     X-component of velocity vector (km/sec)                           
      VY     Y-component of velocity vector (km/sec)                           
      VZ     Z-component of velocity vector (km/sec)                           

ABERRATIONS AND CORRECTIONS

 Geometric state vectors have NO corrections or aberrations applied.

Computations by ...

    Solar System Dynamics Group, Horizons On-Line Ephemeris System
    4800 Oak Grove Drive, Jet Propulsion Laboratory
    Pasadena, CA  91109   USA

    General site: https://ssd.jpl.nasa.gov/
    Mailing list: https://ssd.jpl.nasa.gov/email_list.html
    System news : https://ssd.jpl.nasa.gov/horizons/news.html
    User Guide  : https://ssd.jpl.nasa.gov/horizons/manual.html
    Connect     : browser        https://ssd.jpl.nasa.gov/horizons/app.html#/x
                  API            https://ssd-api.jpl.nasa.gov/doc/horizons.html
                  command-line   telnet ssd.jpl.nasa.gov 6775
                  e-mail/batch   https://ssd.jpl.nasa.gov/ftp/ssd/hrzn_batch.txt
                  scripts        https://ssd.jpl.nasa.gov/ftp/ssd/SCRIPTS
    Author      : Jon.D.Giorgini@jpl.nasa.gov
*******************************************************************************
